NORAD_CAT_ID,OBJECT_NAME,OBJECT_TYPE,EPOCH,MEAN_MOTION,ECCENTRICITY,INCLINATION,RA_OF_ASC_NODE,ARG_OF_PERICENTER,MEAN_ANOMALY,BSTAR,MEAN_MOTION_DOT,MEAN_MOTION_DDOT,TLE_LINE0,TLE_LINE1,TLE_LINE2,SEMIMAJOR_AXIS,PERIOD,APOGEE,PERIGEE,DECAYED
53259.0,STARLINK-4140,PAYLOAD,2024-02-06 05:16:57,15.08844213,0.000172,53.2185,16.6244,92.351,267.768,4.9801e-05,5.05e-06,0.0,0 STARLINK-4140,1 53259U 22086T   24037.22011492  .00000505  00000-0  49801-4 0  9995,2 53259  53.2185  16.6244 0001720  92.3510 267.7680 15.08844213 85963,6917.868,95.437,540.922,538.543,0.0
53259.0,STARLINK-4140,PAYLOAD,2024-02-07 03:32:21,15.0884202,0.0001666,53.2191,12.4566,102.6088,257.5091,1.166e-05,-1.02e-06,0.0,0 STARLINK-4140,1 53259U 22086T   24038.14747660 -.00000102  00000-0  11660-4 0  9996,2 53259  53.2191  12.4566 0001666 102.6088 257.5091 15.08842020 85928,6917.874,95.437,540.892,538.587,0.0
53259.0,STARLINK-4140,PAYLOAD,2024-02-07 14:40:03,15.08842594,0.0001621,53.2198,10.3824,97.3595,262.7582,7.3351e-06,-1.71e-06,0.0,0 STARLINK-4140,1 53259U 22086T   24038.61115729 -.00000171  00000-0  73351-5 0  9995,2 53259  53.2198  10.3824 0001621  97.3595 262.7582 15.08842594 86170,6917.872,95.437,540.859,538.616,0.0
53259.0,STARLINK-4140,PAYLOAD,2024-02-07 22:37:00,15.08836025,0.0002447,53.2215,8.9032,129.3959,230.725,-2.9994e-05,-7.66e-06,0.0,0 STARLINK-4140,1 53259U 22086T   24038.94236287 -.00000766  00000-0 -29994-4 0  9998,2 53259  53.2215   8.9032 0002447 129.3959 230.7250 15.08836025 86226,6917.893,95.438,541.45,538.065,0.0
53259.0,STARLINK-4140,PAYLOAD,2024-02-08 01:47:46,15.0883666,0.0002193,53.221,8.3092,125.9017,234.2179,-2.5737e-05,-6.98e-06,0.0,0 STARLINK-4140,1 53259U 22086T   24039.07484374 -.00000698  00000-0 -25737-4 0  9990,2 53259  53.2210   8.3092 0002193 125.9017 234.2179 15.08836660 86062,6917.891,95.438,541.273,538.239,0.0
53259.0,STARLINK-4140,PAYLOAD,2024-02-08 04:58:32,15.08833942,0.0001977,53.2206,7.7088,118.7206,241.3985,-3.3928e-06,-3.42e-06,0.0,0 STARLINK-4140,1 53259U 22086T   24039.20732553 -.00000342  00000-0 -33928-5 0  9998,2 53259  53.2206   7.7088 0001977 118.7206 241.3985 15.08833942 86260,6917.899,95.438,541.132,538.396,0.0
53259.0,STARLINK-4140,PAYLOAD,2024-02-09 03:13:56,15.08842803,0.0001657,53.2201,3.5456,111.7045,248.4123,3.6014e-05,2.85e-06,0.0,0 STARLINK-4140,1 53259U 22086T   24040.13468239  .00000285  00000-0  36014-4 0  9991,2 53259  53.2201   3.5456 0001657 111.7045 248.4123 15.08842803 86221,6917.872,95.437,540.883,538.591,0.0
53259.0,STARLINK-4140,PAYLOAD,2024-02-09 04:49:19,15.08845585,0.0001431,53.2191,3.2459,92.8518,267.2638,0.00011613,1.561e-05,0.0,0 STARLINK-4140,1 53259U 22086T   24040.20091924  .00001561  00000-0  11613-3 0  9997,2 53259  53.2191   3.2459 0001431  92.8518 267.2638 15.08845585 86414,6917.863,95.437,540.718,538.738,0.0
53259.0,STARLINK-4140,PAYLOAD,2024-02-10 03:04:44,15.08833913,0.0001701,53.2196,359.081,72.7785,287.3393,7.6828e-05,9.35e-06,0.0,0 STARLINK-4140,1 53259U 22086T   24041.12829198  .00000935  00000-0  76828-4 0  9995,2 53259  53.2196 359.0810 0001701  72.7785 287.3393 15.08833913 86373,6917.899,95.438,540.941,538.587,0.0
53259.0,STARLINK-4140,PAYLOAD,2024-02-10 04:40:07,15.0883565,0.0001751,53.2198,358.7842,67.4454,292.6724,8.6324e-05,1.086e-05,0.0,0 STARLINK-4140,1 53259U 22086T   24041.19453140  .00001086  00000-0  86324-4 0  9992,2 53259  53.2198 358.7842 0001751  67.4454 292.6724 15.08835650 86563,6917.894,95.438,540.97,538.547,0.0
53259.0,STARLINK-4140,PAYLOAD,2024-02-11 06:06:17,15.08849178,0.0002056,53.2209,354.0166,62.9755,297.1447,4.2364e-05,3.86e-06,0.0,0 STARLINK-4140,1 53259U 22086T   24042.25436569  .00000386  00000-0  42364-4 0  9994,2 53259  53.2209 354.0166 0002056  62.9755 297.1447 15.08849178 86547,6917.852,95.437,541.14,538.295,0.0
53259.0,STARLINK-4140,PAYLOAD,2024-02-12 05:57:02,15.088609,0.0002176,53.2211,349.5546,128.0031,232.1158,0.0001069,1.414e-05,0.0,0 STARLINK-4140,1 53259U 22086T   24043.24795001  .00001414  00000-0  10690-3 0  9992,2 53259  53.2211 349.5546 0002176 128.0031 232.1158 15.08860900 86695,6917.817,95.436,541.187,538.176,0.0
53259.0,STARLINK-4140,PAYLOAD,2024-02-13 02:37:05,15.08839933,0.0001592,53.2202,345.693,92.0062,268.1112,-5.1371e-05,-1.105e-05,0.0,0 STARLINK-4140,1 53259U 22086T   24044.10908998 -.00001105  00000-0 -51371-4 0  9990,2 53259  53.2202 345.6930 0001592  92.0062 268.1112 15.08839933 86820,6917.881,95.438,540.847,538.644,0.0
53259.0,STARLINK-4140,PAYLOAD,2024-02-13 05:47:51,15.08842181,0.0001523,53.2201,345.0975,94.3751,265.7415,-3.488e-05,-8.43e-06,0.0,0 STARLINK-4140,1 53259U 22086T   24044.24156825 -.00000843  00000-0 -34880-4 0  9993,2 53259  53.2201 345.0975 0001523  94.3751 265.7415 15.08842181 87027,6917.874,95.437,540.792,538.685,0.0
53259.0,STARLINK-4140,PAYLOAD,2024-02-14 00:52:28,15.08853826,0.0001497,53.2191,341.5299,114.3283,245.7866,-8.2211e-05,-1.597e-05,0.0,0 STARLINK-4140,1 53259U 22086T   24045.03644189 -.00001597  00000-0 -82211-4 0  9994,2 53259  53.2191 341.5299 0001497 114.3283 245.7866 15.08853826 86966,6917.838,95.437,540.739,538.668,0.0
53259.0,STARLINK-4140,PAYLOAD,2024-02-14 19:57:07,15.08823338,0.0001368,53.2192,337.9637,72.3211,287.793,0.00023322,3.424e-05,0.0,0 STARLINK-4140,1 53259U 22086T   24045.83133413  .00003424  00000-0  23322-3 0  9991,2 53259  53.2192 337.9637 0001368  72.3211 287.7930 15.08823338 87080,6917.931,95.439,540.743,538.85,0.0
53259.0,STARLINK-4140,PAYLOAD,2024-02-15 02:18:39,15.08837987,9.73e-05,53.2174,336.7785,78.0088,282.1013,1.3307e-05,-7.6e-07,0.0,0 STARLINK-4140,1 53259U 22086T   24046.09629236 -.00000076  00000-0  13307-4 0  9997,2 53259  53.2174 336.7785 0000973  78.0088 282.1013 15.08837987 87128,6917.887,95.438,540.425,539.078,0.0
53259.0,STARLINK-4140,PAYLOAD,2024-02-15 19:47:55,15.08826639,0.0001567,53.2209,333.5145,121.1002,239.0144,2.9818e-05,1.86e-06,0.0,0 STARLINK-4140,1 53259U 22086T   24046.82494290  .00000186  00000-0  29818-4 0  9993,2 53259  53.2209 333.5145 0001567 121.1002 239.0144 15.08826639 87238,6917.921,95.438,540.87,538.702,0.0
53259.0,STARLINK-4140,PAYLOAD,2024-02-15 22:58:41,15.08834579,0.0001533,53.2181,332.9121,83.9467,276.17,-8.1778e-05,-1.589e-05,0.0,0 STARLINK-4140,1 53259U 22086T   24046.95742262 -.00001589  00000-0 -81778-4 0  9995,2 53259  53.2181 332.9121 0001533  83.9467 276.1700 15.08834579 87431,6917.897,95.438,540.822,538.701,0.0
53259.0,STARLINK-4140,PAYLOAD,2024-02-16 00:34:04,15.08837807,0.000165,53.2194,332.6183,112.9175,247.1991,-5.684e-05,-1.192e-05,0.0,0 STARLINK-4140,1 53259U 22086T   24047.02365907 -.00001192  00000-0 -56840-4 0  9993,2 53259  53.2194 332.6183 0001650 112.9175 247.1991 15.08837807 87267,6917.887,95.438,540.894,538.611,0.0
53259.0,STARLINK-4140,PAYLOAD,2024-02-16 11:41:45,15.08839136,0.0001265,53.218,330.5351,79.8585,280.255,0.00011806,1.592e-05,0.0,0 STARLINK-4140,1 53259U 22086T   24047.48733574  .00001592  00000-0  11806-3 0  9996,2 53259  53.2180 330.5351 0001265  79.8585 280.2550 15.08839136 87518,6917.883,95.438,540.623,538.873,0.0
53259.0,STARLINK-4140,PAYLOAD,2024-02-16 18:03:18,15.0883435,0.0001328,53.219,329.3473,81.0652,279.049,0.00013201,1.813e-05,0.0,0 STARLINK-4140,1 53259U 22086T   24047.75229886  .00001813  00000-0  13201-3 0  9999,2 53259  53.2190 329.3473 0001328  81.0652 279.0490 15.08834350 87556,6917.898,95.438,540.681,538.844,0.0
53259.0,STARLINK-4140,PAYLOAD,2024-02-17 02:00:14,15.088368,0.0001615,53.2189,327.8585,80.6013,279.5161,0.00013178,1.81e-05,0.0,0 STARLINK-4140,1 53259U 22086T   24048.08349930  .00001810  00000-0  13178-3 0  9999,2 53259  53.2189 327.8585 0001615  80.6013 279.5161 15.08836800 87424,6917.89,95.438,540.872,538.638,0.0
53259.0,STARLINK-4140,PAYLOAD,2024-02-17 11:32:32,15.08844676,0.0001159,53.2176,326.068,77.2439,282.8682,4.0673e-05,3.6e-06,0.0,0 STARLINK-4140,1 53259U 22086T   24048.48093365  .00000360  00000-0  40673-4 0  9991,2 53259  53.2176 326.0680 0001159  77.2439 282.8682 15.08844676 87665,6917.866,95.437,540.533,538.929,0.0
53259.0,STARLINK-4140,PAYLOAD,2024-02-17 17:54:06,15.08829986,0.0001518,53.219,324.8842,88.5843,271.5323,0.00010234,1.341e-05,0.0,0 STARLINK-4140,1 53259U 22086T   24048.74590480  .00001341  00000-0  10234-3 0  9999,2 53259  53.2190 324.8842 0001518  88.5843 271.5323 15.08829986 87529,6917.911,95.438,540.826,538.726,0.0
53259.0,STARLINK-4140,PAYLOAD,2024-02-17 22:40:15,15.08834055,0.0001379,53.2184,323.9911,85.1334,274.9816,0.00011878,1.603e-05,0.0,0 STARLINK-4140,1 53259U 22086T   24048.94462170  .00001603  00000-0  11878-3 0  9991,2 53259  53.2184 323.9911 0001379  85.1334 274.9816 15.08834055 87732,6917.899,95.438,540.718,538.81,0.0
53259.0,STARLINK-4140,PAYLOAD,2024-02-18 03:26:23,15.08853368,0.0001445,53.2184,323.0978,99.7736,260.3419,0.00016897,2.403e-05,0.0,0 STARLINK-4140,1 53259U 22086T   24049.14332719  .00002403  00000-0  16897-3 0  9994,2 53259  53.2184 323.0978 0001445  99.7736 260.3419 15.08853368 87586,6917.84,95.437,540.704,538.705,0.0
53259.0,STARLINK-4140,PAYLOAD,2024-02-18 11:23:20,15.08839355,0.0001914,53.2202,321.6147,79.605,280.5158,3.3392e-05,2.43e-06,0.0,0 STARLINK-4140,1 53259U 22086T   24049.47454211  .00000243  00000-0  33392-4 0  9992,2 53259  53.2202 321.6147 0001914  79.6050 280.5158 15.08839355 87636,6917.882,95.438,541.071,538.423,0.0
53259.0,STARLINK-4140,PAYLOAD,2024-02-18 22:31:02,15.08839448,0.0001591,53.2186,319.5327,80.3271,279.7901,3.9914e-05,3.47e-06,0.0,0 STARLINK-4140,1 53259U 22086T   24049.93822022  .00000347  00000-0  39914-4 0  9993,2 53259  53.2186 319.5327 0001591  80.3271 279.7901 15.08839448 87884,6917.882,95.438,540.848,538.646,0.0
53259.0,STARLINK-4140,PAYLOAD,2024-02-19 03:17:10,15.0885762,0.000143,53.2193,318.6372,89.8564,270.2592,8.8504e-05,1.122e-05,0.0,0 STARLINK-4140,1 53259U 22086T   24050.13692586  .00001122  00000-0  88504-4 0  9998,2 53259  53.2193 318.6372 0001430  89.8564 270.2592 15.08857620 87731,6917.827,95.436,540.681,538.702,0.0
